{"fetched_at":"2026-07-17T17:37:55.179Z","source":"https://celestrak.org/NORAD/elements/gp.php?GROUP=planet&FORMAT=JSON","constellation":"superdove","records":[{"OBJECT_NAME":"FLOCK 4H-16","OBJECT_ID":"2025-276BF","EPOCH":"2026-07-17T04:14:55.779072","CLASSIFICATION_TYPE":"U","MEAN_MOTION":15.20164126,"ECCENTRICITY":0.00028818,"INCLINATION":97.4224,"RA_OF_ASC_NODE":271.2839,"ARG_OF_PERICENTER":246.4276,"MEAN_ANOMALY":113.6656,"EPHEMERIS_TYPE":0,"NORAD_CAT_ID":66719,"ELEMENT_SET_NO":999,"REV_AT_EPOCH":3497,"BSTAR":0.00015273021,"MEAN_MOTION_DOT":0.00003237,"MEAN_MOTION_DDOT":0},{"OBJECT_NAME":"FLOCK 4H-18","OBJECT_ID":"2025-276BH","EPOCH":"2026-07-16T18:55:10.593120","CLASSIFICATION_TYPE":"U","MEAN_MOTION":15.20104023,"ECCENTRICITY":0.00022103,"INCLINATION":97.4168,"RA_OF_ASC_NODE":270.7134,"ARG_OF_PERICENTER":283.2969,"MEAN_ANOMALY":76.802,"EPHEMERIS_TYPE":0,"NORAD_CAT_ID":66721,"ELEMENT_SET_NO":999,"REV_AT_EPOCH":3491,"BSTAR":0.00016706499,"MEAN_MOTION_DOT":0.00003541,"MEAN_MOTION_DDOT":0},{"OBJECT_NAME":"FLOCK 4H-19","OBJECT_ID":"2025-276BJ","EPOCH":"2026-07-16T15:42:53.748864","CLASSIFICATION_TYPE":"U","MEAN_MOTION":15.21294093,"ECCENTRICITY":0.00024719,"INCLINATION":97.417,"RA_OF_ASC_NODE":271.0474,"ARG_OF_PERICENTER":146.6491,"MEAN_ANOMALY":213.4901,"EPHEMERIS_TYPE":0,"NORAD_CAT_ID":66722,"ELEMENT_SET_NO":999,"REV_AT_EPOCH":3421,"BSTAR":0.00013802543,"MEAN_MOTION_DOT":0.00003018,"MEAN_MOTION_DDOT":0},{"OBJECT_NAME":"FLOCK 4H-20","OBJECT_ID":"2025-276BK","EPOCH":"2026-07-17T04:23:24.951552","CLASSIFICATION_TYPE":"U","MEAN_MOTION":15.21460073,"ECCENTRICITY":0.00030764,"INCLINATION":97.4204,"RA_OF_ASC_NODE":271.6752,"ARG_OF_PERICENTER":165.219,"MEAN_ANOMALY":194.9136,"EPHEMERIS_TYPE":0,"NORAD_CAT_ID":66723,"ELEMENT_SET_NO":999,"REV_AT_EPOCH":3425,"BSTAR":0.00014918046,"MEAN_MOTION_DOT":0.00003283,"MEAN_MOTION_DDOT":0},{"OBJECT_NAME":"FLOCK 4H-21","OBJECT_ID":"2025-276BL","EPOCH":"2026-07-17T03:34:37.178688","CLASSIFICATION_TYPE":"U","MEAN_MOTION":15.21043785,"ECCENTRICITY":0.00028962,"INCLINATION":97.4171,"RA_OF_ASC_NODE":271.4636,"ARG_OF_PERICENTER":163.4474,"MEAN_ANOMALY":196.6857,"EPHEMERIS_TYPE":0,"NORAD_CAT_ID":66724,"ELEMENT_SET_NO":999,"REV_AT_EPOCH":3424,"BSTAR":0.00016426649,"MEAN_MOTION_DOT":0.00003578,"MEAN_MOTION_DDOT":0},{"OBJECT_NAME":"FLOCK 4H-22","OBJECT_ID":"2025-276BM","EPOCH":"2026-07-16T17:36:22.304736","CLASSIFICATION_TYPE":"U","MEAN_MOTION":15.20535642,"ECCENTRICITY":0.00010158,"INCLINATION":97.4161,"RA_OF_ASC_NODE":270.7637,"ARG_OF_PERICENTER":283.2554,"MEAN_ANOMALY":76.8568,"EPHEMERIS_TYPE":0,"NORAD_CAT_ID":66725,"ELEMENT_SET_NO":999,"REV_AT_EPOCH":3491,"BSTAR":0.00018550816,"MEAN_MOTION_DOT":0.00003989,"MEAN_MOTION_DDOT":0},{"OBJECT_NAME":"FLOCK 4H-23","OBJECT_ID":"2025-276BN","EPOCH":"2026-07-16T18:54:15.261696","CLASSIFICATION_TYPE":"U","MEAN_MOTION":15.20082322,"ECCENTRICITY":0.00031084,"INCLINATION":97.423,"RA_OF_ASC_NODE":270.9019,"ARG_OF_PERICENTER":236.3451,"MEAN_ANOMALY":123.7488,"EPHEMERIS_TYPE":0,"NORAD_CAT_ID":66726,"ELEMENT_SET_NO":999,"REV_AT_EPOCH":3491,"BSTAR":0.00016103915,"MEAN_MOTION_DOT":0.00003408,"MEAN_MOTION_DDOT":0},{"OBJECT_NAME":"FLOCK 4H-24","OBJECT_ID":"2025-276BP","EPOCH":"2026-07-16T18:32:10.931136","CLASSIFICATION_TYPE":"U","MEAN_MOTION":15.20191806,"ECCENTRICITY":0.00024145,"INCLINATION":97.4226,"RA_OF_ASC_NODE":270.9159,"ARG_OF_PERICENTER":258.0589,"MEAN_ANOMALY":102.0376,"EPHEMERIS_TYPE":0,"NORAD_CAT_ID":66727,"ELEMENT_SET_NO":999,"REV_AT_EPOCH":3491,"BSTAR":0.0001705095,"MEAN_MOTION_DOT":0.00003624,"MEAN_MOTION_DDOT":0},{"OBJECT_NAME":"FLOCK 4H-25","OBJECT_ID":"2025-276BQ","EPOCH":"2026-07-16T16:58:13.036512","CLASSIFICATION_TYPE":"U","MEAN_MOTION":15.20957359,"ECCENTRICITY":0.00019251,"INCLINATION":97.4184,"RA_OF_ASC_NODE":271.0198,"ARG_OF_PERICENTER":125.5526,"MEAN_ANOMALY":234.589,"EPHEMERIS_TYPE":0,"NORAD_CAT_ID":66728,"ELEMENT_SET_NO":999,"REV_AT_EPOCH":3420,"BSTAR":0.00016785188,"MEAN_MOTION_DOT":0.00003648,"MEAN_MOTION_DDOT":0},{"OBJECT_NAME":"FLOCK 4H-26","OBJECT_ID":"2025-276BR","EPOCH":"2026-07-17T00:05:08.881728","CLASSIFICATION_TYPE":"U","MEAN_MOTION":15.19917232,"ECCENTRICITY":0.00032789,"INCLINATION":97.418,"RA_OF_ASC_NODE":270.9236,"ARG_OF_PERICENTER":255.9832,"MEAN_ANOMALY":104.1039,"EPHEMERIS_TYPE":0,"NORAD_CAT_ID":66729,"ELEMENT_SET_NO":999,"REV_AT_EPOCH":3494,"BSTAR":0.00018276476,"MEAN_MOTION_DOT":0.00003859,"MEAN_MOTION_DDOT":0},{"OBJECT_NAME":"FLOCK 4H-27","OBJECT_ID":"2025-276BS","EPOCH":"2026-07-16T17:42:33.400512","CLASSIFICATION_TYPE":"U","MEAN_MOTION":15.20781229,"ECCENTRICITY":0.00016629,"INCLINATION":97.4158,"RA_OF_ASC_NODE":270.9026,"ARG_OF_PERICENTER":128.2227,"MEAN_ANOMALY":231.9159,"EPHEMERIS_TYPE":0,"NORAD_CAT_ID":66730,"ELEMENT_SET_NO":999,"REV_AT_EPOCH":3492,"BSTAR":0.00017503235,"MEAN_MOTION_DOT":0.00003788,"MEAN_MOTION_DDOT":0},{"OBJECT_NAME":"FLOCK 4H-29","OBJECT_ID":"2025-276BU","EPOCH":"2026-07-17T04:19:48.714816","CLASSIFICATION_TYPE":"U","MEAN_MOTION":15.20057976,"ECCENTRICITY":0.00016717,"INCLINATION":97.4159,"RA_OF_ASC_NODE":271.0798,"ARG_OF_PERICENTER":270.2581,"MEAN_ANOMALY":89.8462,"EPHEMERIS_TYPE":0,"NORAD_CAT_ID":66732,"ELEMENT_SET_NO":999,"REV_AT_EPOCH":3497,"BSTAR":0.00015703447,"MEAN_MOTION_DOT":0.00003319,"MEAN_MOTION_DDOT":0},{"OBJECT_NAME":"FLOCK 4H-30","OBJECT_ID":"2025-276BV","EPOCH":"2026-07-16T15:29:37.838112","CLASSIFICATION_TYPE":"U","MEAN_MOTION":15.20176476,"ECCENTRICITY":0.00026794,"INCLINATION":97.4222,"RA_OF_ASC_NODE":270.7628,"ARG_OF_PERICENTER":257.8027,"MEAN_ANOMALY":102.2908,"EPHEMERIS_TYPE":0,"NORAD_CAT_ID":66733,"ELEMENT_SET_NO":999,"REV_AT_EPOCH":3489,"BSTAR":0.00015930589,"MEAN_MOTION_DOT":0.0000338,"MEAN_MOTION_DDOT":0},{"OBJECT_NAME":"FLOCK 4H-31","OBJECT_ID":"2025-276BW","EPOCH":"2026-07-16T23:54:08.904096","CLASSIFICATION_TYPE":"U","MEAN_MOTION":15.19954362,"ECCENTRICITY":0.00021069,"INCLINATION":97.4157,"RA_OF_ASC_NODE":270.8653,"ARG_OF_PERICENTER":266.6801,"MEAN_ANOMALY":93.4193,"EPHEMERIS_TYPE":0,"NORAD_CAT_ID":66734,"ELEMENT_SET_NO":999,"REV_AT_EPOCH":3494,"BSTAR":0.00016003168,"MEAN_MOTION_DOT":0.00003374,"MEAN_MOTION_DDOT":0},{"OBJECT_NAME":"FLOCK 4H-32","OBJECT_ID":"2025-276BX","EPOCH":"2026-07-16T15:42:33.998688","CLASSIFICATION_TYPE":"U","MEAN_MOTION":15.20072079,"ECCENTRICITY":0.00030856,"INCLINATION":97.4215,"RA_OF_ASC_NODE":270.7273,"ARG_OF_PERICENTER":254.5157,"MEAN_ANOMALY":105.5738,"EPHEMERIS_TYPE":0,"NORAD_CAT_ID":66735,"ELEMENT_SET_NO":999,"REV_AT_EPOCH":3489,"BSTAR":0.00015865629,"MEAN_MOTION_DOT":0.00003356,"MEAN_MOTION_DDOT":0},{"OBJECT_NAME":"FLOCK 4H-33","OBJECT_ID":"2025-276BY","EPOCH":"2026-07-16T17:50:13.741440","CLASSIFICATION_TYPE":"U","MEAN_MOTION":15.21200412,"ECCENTRICITY":0.00028532,"INCLINATION":97.4211,"RA_OF_ASC_NODE":271.2101,"ARG_OF_PERICENTER":158.5695,"MEAN_ANOMALY":201.5661,"EPHEMERIS_TYPE":0,"NORAD_CAT_ID":66736,"ELEMENT_SET_NO":999,"REV_AT_EPOCH":3493,"BSTAR":0.00016799191,"MEAN_MOTION_DOT":0.00003678,"MEAN_MOTION_DDOT":0}]}
