FLOCK 4H-16             
1 66719U 25276BF  26198.17703448  .00003237  00000+0  15273-3 0  9996
2 66719  97.4224 271.2839 0002881 246.4276 113.6656 15.20164126 34970
FLOCK 4H-18             
1 66721U 25276BH  26197.78831705  .00003541  00000+0  16706-3 0  9993
2 66721  97.4168 270.7134 0002210 283.2969  76.8020 15.20104023 34915
FLOCK 4H-19             
1 66722U 25276BJ  26197.65478876  .00003018  00000+0  13803-3 0  9990
2 66722  97.4170 271.0474 0002471 146.6491 213.4901 15.21294093 34219
FLOCK 4H-20             
1 66723U 25276BK  26198.18292768  .00003283  00000+0  14918-3 0  9996
2 66723  97.4204 271.6752 0003076 165.2190 194.9136 15.21460073 34258
FLOCK 4H-21             
1 66724U 25276BL  26198.14904142  .00003578  00000+0  16427-3 0  9993
2 66724  97.4171 271.4636 0002896 163.4474 196.6857 15.21043785 34240
FLOCK 4H-22             
1 66725U 25276BM  26197.73359149  .00003989  00000+0  18551-3 0  9995
2 66725  97.4161 270.7637 0001015 283.2554  76.8568 15.20535642 34914
FLOCK 4H-23             
1 66726U 25276BN  26197.78767664  .00003408  00000+0  16104-3 0  9994
2 66726  97.4230 270.9019 0003108 236.3451 123.7488 15.20082322 34913
FLOCK 4H-24             
1 66727U 25276BP  26197.77234874  .00003624  00000+0  17051-3 0  9998
2 66727  97.4226 270.9159 0002414 258.0589 102.0376 15.20191806 34910
FLOCK 4H-25             
1 66728U 25276BQ  26197.70709533  .00003648  00000+0  16785-3 0  9990
2 66728  97.4184 271.0198 0001925 125.5526 234.5890 15.20957359 34201
FLOCK 4H-26             
1 66729U 25276BR  26198.00357502  .00003859  00000+0  18276-3 0  9991
2 66729  97.4180 270.9236 0003278 255.9832 104.1039 15.19917232 34942
FLOCK 4H-27             
1 66730U 25276BS  26197.73788658  .00003788  00000+0  17503-3 0  9995
2 66730  97.4158 270.9026 0001662 128.2227 231.9159 15.20781229 34928
FLOCK 4H-29             
1 66732U 25276BU  26198.18042494  .00003319  00000+0  15703-3 0  9998
2 66732  97.4159 271.0798 0001671 270.2581  89.8462 15.20057976 34977
FLOCK 4H-30             
1 66733U 25276BV  26197.64557683  .00003380  00000+0  15931-3 0  9991
2 66733  97.4222 270.7628 0002679 257.8027 102.2908 15.20176476 34895
FLOCK 4H-31             
1 66734U 25276BW  26197.99593639  .00003374  00000+0  16003-3 0  9995
2 66734  97.4157 270.8653 0002106 266.6801  93.4193 15.19954362 34944
FLOCK 4H-32             
1 66735U 25276BX  26197.65456017  .00003356  00000+0  15866-3 0  9993
2 66735  97.4215 270.7273 0003085 254.5157 105.5738 15.20072079 34896
FLOCK 4H-33             
1 66736U 25276BY  26197.74321460  .00003678  00000+0  16799-3 0  9990
2 66736  97.4211 271.2101 0002853 158.5695 201.5661 15.21200412 34933
